ICEYE-X40               
1 60549U 24149CK  26068.75921699  .00003253  00000+0  28352-3 0  9999
2 60549  97.6865 146.8579 0005983  65.2061 294.9783 14.97556326 85195
STARLINK-34434          
1 64422U 25129L   26068.42768415 -.00003311  00000+0 -26984-3 0  9997
2 64422  70.0009  75.2956 0003163 271.5115  88.5682 14.98323947 41243
